[{"OBJECT_NAME":"YAOGAN-15","OBJECT_ID":"2012-029A","EPOCH":"2026-03-09T23:45:53.885664","MEAN_MOTION":13.18381612,"ECCENTRICITY":0.00255124,"INCLINATION":100.7439,"RA_OF_ASC_NODE":271.8969,"ARG_OF_PERICENTER":154.8606,"MEAN_ANOMALY":205.3754,"EPHEMERIS_TYPE":0,"CLASSIFICATION_TYPE":"U","NORAD_CAT_ID":38354,"ELEMENT_SET_NO":999,"REV_AT_EPOCH":66237,"BSTAR":0.0014389318,"MEAN_MOTION_DOT":5.19e-6,"MEAN_MOTION_DDOT":0},{"OBJECT_NAME":"NOVA 1","OBJECT_ID":"1981-044A","EPOCH":"2026-03-09T23:44:36.716640","MEAN_MOTION":13.23287337,"ECCENTRICITY":0.00130269,"INCLINATION":89.842,"RA_OF_ASC_NODE":90.1115,"ARG_OF_PERICENTER":217.6651,"MEAN_ANOMALY":201.8697,"EPHEMERIS_TYPE":0,"CLASSIFICATION_TYPE":"U","NORAD_CAT_ID":12458,"ELEMENT_SET_NO":999,"REV_AT_EPOCH":16340,"BSTAR":5.1340553e-5,"MEAN_MOTION_DOT":3.1e-7,"MEAN_MOTION_DDOT":0}]
